{"type": "FeatureCollection", "features": [ {"type": "Feature", "properties": {"norad_id": 39019, "name": "PLEIADES 1B", "group": "resource", "lat": -28.577007703937554, "lon": -118.09065504314522, "alt_km": 704.1401357585473, "timestamp": "2025-12-19T20:42:59.738053+00:00", "meta": {"OBJECT_NAME": "PLEIADES 1B", "OBJECT_ID": "2012-068A", "EPOCH": "2025-12-19T06:35:27.204288", "MEAN_MOTION": 14.58559019, "ECCENTRICITY": 0.00011467, "INCLINATION": 98.1794, "RA_OF_ASC_NODE": 65.8235, "ARG_OF_PERICENTER": 86.1609, "MEAN_ANOMALY": 273.9722, "EPHEMERIS_TYPE": 0, "CLASSIFICATION_TYPE": "U", "NORAD_CAT_ID": 39019, "ELEMENT_SET_NO": 999, "REV_AT_EPOCH": 69462, "BSTAR": 9.9883609e-05, "MEAN_MOTION_DOT": 4.19e-06, "MEAN_MOTION_DDOT": 0}, "tle": {"line1": "1 39019U 12068A   25353.27462042  .00000419  00000+0  99884-4 0  9999", "line2": "2 39019  98.1794  65.8235 0001146  86.1609 273.9722 14.58559019694629"}}, "geometry": {"type": "Point", "coordinates": [-118.09065504314522, -28.577007703937554]}}, {"type": "Feature", "properties": {"norad_id": 39030, "name": "GOKTURK 2", "group": "resource", "lat": 46.84450812762972, "lon": 23.450126652706768, "alt_km": 639.3389290294208, "timestamp": "2025-12-19T20:42:59.738063+00:00", "meta": {"OBJECT_NAME": "GOKTURK 2", "OBJECT_ID": "2012-073A", "EPOCH": "2025-12-19T07:05:44.784672", "MEAN_MOTION": 14.75299653, "ECCENTRICITY": 0.00012055, "INCLINATION": 97.6888, "RA_OF_ASC_NODE": 194.6263, "ARG_OF_PERICENTER": 107.8508, "MEAN_ANOMALY": 252.2834, "EPHEMERIS_TYPE": 0, "CLASSIFICATION_TYPE": "U", "NORAD_CAT_ID": 39030, "ELEMENT_SET_NO": 999, "REV_AT_EPOCH": 69798, "BSTAR": 6.5580289e-05, "MEAN_MOTION_DOT": 3.97e-06, "MEAN_MOTION_DDOT": 0}, "tle": {"line1": "1 39030U 12073A   25353.29565723  .00000397  00000+0  65580-4 0  9991", "line2": "2 39030  97.6888 194.6263 0001205 107.8508 252.2834 14.75299653697987"}}, "geometry": {"type": "Point", "coordinates": [23.450126652706768, 46.84450812762972]}}, {"type": "Feature", "properties": {"norad_id": 39084, "name": "LANDSAT 8", "group": "resource", "lat": -18.04326431471961, "lon": 64.52577647692097, "alt_km": 707.7329781546332, "timestamp": "2025-12-19T20:42:59.738073+00:00", "meta": {"OBJECT_NAME": "LANDSAT 8", "OBJECT_ID": "2013-008A", "EPOCH": "2025-12-19T05:58:02.809632", "MEAN_MOTION": 14.57108944, "ECCENTRICITY": 0.00010801, "INCLINATION": 98.2065, "RA_OF_ASC_NODE": 61.2259, "ARG_OF_PERICENTER": 89.6679, "MEAN_ANOMALY": 270.4643, "EPHEMERIS_TYPE": 0, "CLASSIFICATION_TYPE": "U", "NORAD_CAT_ID": 39084, "ELEMENT_SET_NO": 999, "REV_AT_EPOCH": 67169, "BSTAR": 7.6861934e-05, "MEAN_MOTION_DOT": 3.01e-06, "MEAN_MOTION_DDOT": 0}, "tle": {"line1": "1 39084U 13008A   25353.24864363  .00000301  00000+0  76862-4 0  9996", "line2": "2 39084  98.2065  61.2259 0001080  89.6679 270.4643 14.57108944671693"}}, "geometry": {"type": "Point", "coordinates": [64.52577647692097, -18.04326431471961]}}, {"type": "Feature", "properties": {"norad_id": 39086, "name": "SARAL", "group": "resource", "lat": 62.698292709472476, "lon": 160.75509544374293, "alt_km": 774.5689180349664, "timestamp": "2025-12-19T20:42:59.738083+00:00", "meta": {"OBJECT_NAME": "SARAL", "OBJECT_ID": "2013-009A", "EPOCH": "2025-12-19T07:00:38.722176", "MEAN_MOTION": 14.32759197, "ECCENTRICITY": 0.0002949, "INCLINATION": 98.5502, "RA_OF_ASC_NODE": 177.137, "ARG_OF_PERICENTER": 96.3129, "MEAN_ANOMALY": 263.8391, "EPHEMERIS_TYPE": 0, "CLASSIFICATION_TYPE": "U", "NORAD_CAT_ID": 39086, "ELEMENT_SET_NO": 999, "REV_AT_EPOCH": 66984, "BSTAR": 4.8739189e-05, "MEAN_MOTION_DOT": 8.9e-07, "MEAN_MOTION_DDOT": 0}, "tle": {"line1": "1 39086U 13009A   25353.29211484  .00000089  00000+0  48739-4 0  9999", "line2": "2 39086  98.5502 177.1370 0002949  96.3129 263.8391 14.32759197669840"}}, "geometry": {"type": "Point", "coordinates": [160.75509544374293, 62.698292709472476]}}, {"type": "Feature", "properties": {"norad_id": 39150, "name": "GAOFEN-1", "group": "resource", "lat": -61.56855477708376, "lon": -130.52727915680768, "alt_km": 654.2450150618406, "timestamp": "2025-12-19T20:42:59.738094+00:00", "meta": {"OBJECT_NAME": "GAOFEN-1", "OBJECT_ID": "2013-018A", "EPOCH": "2025-12-19T06:36:40.389408", "MEAN_MOTION": 14.76490282, "ECCENTRICITY": 0.00182839, "INCLINATION": 97.9326, "RA_OF_ASC_NODE": 63.8197, "ARG_OF_PERICENTER": 123.1608, "MEAN_ANOMALY": 237.1359, "EPHEMERIS_TYPE": 0, "CLASSIFICATION_TYPE": "U", "NORAD_CAT_ID": 39150, "ELEMENT_SET_NO": 999, "REV_AT_EPOCH": 68169, "BSTAR": 7.7549029e-05, "MEAN_MOTION_DOT": 4.9e-06, "MEAN_MOTION_DDOT": 0}, "tle": {"line1": "1 39150U 13018A   25353.27546747  .00000490  00000+0  77549-4 0  9999", "line2": "2 39150  97.9326  63.8197 0018283 123.1608 237.1359 14.76490282681696"}}, "geometry": {"type": "Point", "coordinates": [-130.52727915680768, -61.56855477708376]}}, {"type": "Feature", "properties": {"norad_id": 39160, "name": "VNREDSAT 1", "group": "resource", "lat": 7.478578571227703, "lon": 47.839441023290895, "alt_km": 678.9710647628126, "timestamp": "2025-12-19T20:42:59.738104+00:00", "meta": {"OBJECT_NAME": "VNREDSAT 1", "OBJECT_ID": "2013-021B", "EPOCH": "2025-12-19T07:34:04.600128", "MEAN_MOTION": 14.64932002, "ECCENTRICITY": 0.00012089, "INCLINATION": 97.9371, "RA_OF_ASC_NODE": 48.3602, "ARG_OF_PERICENTER": 79.2256, "MEAN_ANOMALY": 280.9083, "EPHEMERIS_TYPE": 0, "CLASSIFICATION_TYPE": "U", "NORAD_CAT_ID": 39160, "ELEMENT_SET_NO": 999, "REV_AT_EPOCH": 67395, "BSTAR": 9.4846448e-05, "MEAN_MOTION_DOT": 4.62e-06, "MEAN_MOTION_DDOT": 0}, "tle": {"line1": "1 39160U 13021B   25353.31533102  .00000462  00000+0  94846-4 0  9998", "line2": "2 39160  97.9371  48.3602 0001208  79.2256 280.9083 14.64932002673953"}}, "geometry": {"type": "Point", "coordinates": [47.839441023290895, 7.478578571227703]}}, {"type": "Feature", "properties": {"norad_id": 39227, "name": "ARIRANG-5 (KOMPSAT-5)", "group": "resource", "lat": 19.47054789524501, "lon": 175.35337861394066, "alt_km": 550.8809382218078, "timestamp": "2025-12-19T20:42:59.738114+00:00", "meta": {"OBJECT_NAME": "ARIRANG-5 (KOMPSAT-5)", "OBJECT_ID": "2013-042A", "EPOCH": "2025-12-19T07:51:36.539136", "MEAN_MOTION": 15.04534228, "ECCENTRICITY": 0.00034276, "INCLINATION": 97.6151, "RA_OF_ASC_NODE": 177.5366, "ARG_OF_PERICENTER": 39.1507, "MEAN_ANOMALY": 320.9967, "EPHEMERIS_TYPE": 0, "CLASSIFICATION_TYPE": "U", "NORAD_CAT_ID": 39227, "ELEMENT_SET_NO": 999, "REV_AT_EPOCH": 67681, "BSTAR": 0.00014935447, "MEAN_MOTION_DOT": 2.032e-05, "MEAN_MOTION_DDOT": 0}, "tle": {"line1": "1 39227U 13042A   25353.32750624  .00002032  00000+0  14935-3 0  9991", "line2": "2 39227  97.6151 177.5366 0003427  39.1507 320.9967 15.04534228676818"}}, "geometry": {"type": "Point", "coordinates": [175.35337861394066, 19.47054789524501]}}, {"type": "Feature", "properties": {"norad_id": 39418, "name": "SKYSAT-A", "group": "resource", "lat": -34.539728262197826, "lon": -141.28403991891423, "alt_km": 522.8537145933697, "timestamp": "2025-12-19T20:42:59.738125+00:00", "meta": {"OBJECT_NAME": "SKYSAT-A", "OBJECT_ID": "2013-066C", "EPOCH": "2025-12-19T02:17:36.318336", "MEAN_MOTION": 15.11647877, "ECCENTRICITY": 0.00211813, "INCLINATION": 97.4101, "RA_OF_ASC_NODE": 43.1111, "ARG_OF_PERICENTER": 213.5251, "MEAN_ANOMALY": 146.464, "EPHEMERIS_TYPE": 0, "CLASSIFICATION_TYPE": "U", "NORAD_CAT_ID": 39418, "ELEMENT_SET_NO": 999, "REV_AT_EPOCH": 66126, "BSTAR": 0.00019515102, "MEAN_MOTION_DOT": 3.271e-05, "MEAN_MOTION_DDOT": 0}, "tle": {"line1": "1 39418U 13066C   25353.09555924  .00003271  00000+0  19515-3 0  9994", "line2": "2 39418  97.4101  43.1111 0021181 213.5251 146.4640 15.11647877661265"}}, "geometry": {"type": "Point", "coordinates": [-141.28403991891423, -34.539728262197826]}}, {"type": "Feature", "properties": {"norad_id": 39419, "name": "DUBAISAT-2", "group": "resource", "lat": -81.58259369919115, "lon": 46.1287724097994, "alt_km": 541.9255803304932, "timestamp": "2025-12-19T20:42:59.738136+00:00", "meta": {"OBJECT_NAME": "DUBAISAT-2", "OBJECT_ID": "2013-066D", "EPOCH": "2025-12-19T06:46:06.278304", "MEAN_MOTION": 15.08416123, "ECCENTRICITY": 0.00099835, "INCLINATION": 97.4441, "RA_OF_ASC_NODE": 343.488, "ARG_OF_PERICENTER": 296.4726, "MEAN_ANOMALY": 63.5479, "EPHEMERIS_TYPE": 0, "CLASSIFICATION_TYPE": "U", "NORAD_CAT_ID": 39419, "ELEMENT_SET_NO": 999, "REV_AT_EPOCH": 65925, "BSTAR": 0.00020615462, "MEAN_MOTION_DOT": 3.149e-05, "MEAN_MOTION_DDOT": 0}, "tle": {"line1": "1 39419U 13066D   25353.28201711  .00003149  00000+0  20615-3 0  9995", "line2": "2 39419  97.4441 343.4880 0009983 296.4726  63.5479 15.08416123659254"}}, "geometry": {"type": "Point", "coordinates": [46.1287724097994, -81.58259369919115]}}, {"type": "Feature", "properties": {"norad_id": 39574, "name": "GPM-CORE", "group": "resource", "lat": -63.88542441148769, "lon": 116.43899613974654, "alt_km": 433.2739225748901, "timestamp": "2025-12-19T20:42:59.738146+00:00", "meta": {"OBJECT_NAME": "GPM-CORE", "OBJECT_ID": "2014-009C", "EPOCH": "2025-12-19T05:31:57.800640", "MEAN_MOTION": 15.44559944, "ECCENTRICITY": 0.00094615, "INCLINATION": 64.972, "RA_OF_ASC_NODE": 190.9457, "ARG_OF_PERICENTER": 247.593, "MEAN_ANOMALY": 112.4209, "EPHEMERIS_TYPE": 0, "CLASSIFICATION_TYPE": "U", "NORAD_CAT_ID": 39574, "ELEMENT_SET_NO": 999, "REV_AT_EPOCH": 67001, "BSTAR": 0.00013226949, "MEAN_MOTION_DOT": 5.933e-05, "MEAN_MOTION_DDOT": 0}, "tle": {"line1": "1 39574U 14009C   25353.23053010  .00005933  00000+0  13227-3 0  9991", "line2": "2 39574  64.9720 190.9457 0009461 247.5930 112.4209 15.44559944670016"}}, "geometry": {"type": "Point", "coordinates": [116.43899613974654, -63.88542441148769]}}]}